start=new Date('2022-11-09T00:00:00.000Z').valueOf();
sats=[{"GP_ID":"217172245","FILE":"3648805","INCLINATION":"53.2191","TLE_LINE1":"1 51890U 22022AQ  22312.39510452  .00005567  00000-0  36740-3 0  9996","REV_AT_EPOCH":"3947","TLE_LINE2":"2 51890  53.2191  63.7788 0001963  46.5425 313.5731 15.08856740 39470","OBJECT_ID":"2022-022AQ","APOAPSIS":"541.052","ARG_OF_PERICENTER":"46.5425","ELEMENT_SET_NO":"999","OBJECT_TYPE":"PAYLOAD","RCS_SIZE":"LARGE","OBJECT_NAME":"STARLINK-3519","EPOCH":"2022-11-08T09:28:57.030528","CLASSIFICATION_TYPE":"U","SITE":"AFETR","CENTER_NAME":"EARTH","REF_FRAME":"TEME","DECAY_DATE":null,"COUNTRY_CODE":"US","ECCENTRICITY":"0.00019630","MEAN_ANOMALY":"313.5731","MEAN_ELEMENT_THEORY":"SGP4","BSTAR":"0.00036740000000","EPHEMERIS_TYPE":"0","PERIOD":"95.436","MEAN_MOTION_DDOT":"0.0000000000000","SEMIMAJOR_AXIS":"6917.829","TIME_SYSTEM":"UTC","MEAN_MOTION":"15.08856740","MEAN_MOTION_DOT":"0.00005567","PERIAPSIS":"538.336","NORAD_CAT_ID":"51890","RA_OF_ASC_NODE":"63.7788","LAUNCH_DATE":"2022-03-03"},{"SITE":"AFETR","OBJECT_NAME":"STARLINK-3549","EPOCH":"2022-11-08T07:37:40.395360","CLASSIFICATION_TYPE":"U","RCS_SIZE":"LARGE","ELEMENT_SET_NO":"999","OBJECT_TYPE":"PAYLOAD","ARG_OF_PERICENTER":"55.3848","APOAPSIS":"540.992","OBJECT_ID":"2022-022AR","TLE_LINE2":"2 51891  53.2205  64.1277 0001867  55.3848 304.7320 15.08854742 39516","TLE_LINE1":"1 51891U 22022AR  22312.31782865  .00005116  00000-0  33916-3 0  9990","INCLINATION":"53.2205","REV_AT_EPOCH":"3951","FILE":"3648805","GP_ID":"217172991","LAUNCH_DATE":"2022-03-03","RA_OF_ASC_NODE":"64.1277","NORAD_CAT_ID":"51891","PERIAPSIS":"538.409","MEAN_MOTION_DOT":"0.00005116","MEAN_MOTION":"15.08854742","TIME_SYSTEM":"UTC","SEMIMAJOR_AXIS":"6917.835","MEAN_MOTION_DDOT":"0.0000000000000","PERIOD":"95.437","EPHEMERIS_TYPE":"0","BSTAR":"0.00033916000000","MEAN_ELEMENT_THEORY":"SGP4","MEAN_ANOMALY":"304.7320","COUNTRY_CODE":"US","DECAY_DATE":null,"ECCENTRICITY":"0.00018670","REF_FRAME":"TEME","CENTER_NAME":"EARTH"},{"REF_FRAME":"TEME","CENTER_NAME":"EARTH","ECCENTRICITY":"0.00018680","DECAY_DATE":null,"COUNTRY_CODE":"US","MEAN_ANOMALY":"310.4133","TIME_SYSTEM":"UTC","SEMIMAJOR_AXIS":"6917.874","MEAN_MOTION_DDOT":"0.0000000000000","BSTAR":"0.00023024000000","EPHEMERIS_TYPE":"0","PERIOD":"95.437","MEAN_ELEMENT_THEORY":"SGP4","RA_OF_ASC_NODE":"63.8006","LAUNCH_DATE":"2022-03-03","PERIAPSIS":"538.447","NORAD_CAT_ID":"51892","MEAN_MOTION":"15.08842044","MEAN_MOTION_DOT":"0.00003378","FILE":"3648805","INCLINATION":"53.2196","TLE_LINE1":"1 51892U 22022AS  22312.39142497  .00003378  00000-0  23024-3 0  9997","REV_AT_EPOCH":"3947","GP_ID":"217171246","TLE_LINE2":"2 51892  53.2196  63.8006 0001868  49.7022 310.4133 15.08842044 39477","OBJECT_TYPE":"PAYLOAD","ELEMENT_SET_NO":"999","ARG_OF_PERICENTER":"49.7022","OBJECT_ID":"2022-022AS","APOAPSIS":"541.031","OBJECT_NAME":"STARLINK-3587","EPOCH":"2022-11-08T09:23:39.117408","CLASSIFICATION_TYPE":"U","SITE":"AFETR","RCS_SIZE":"LARGE"},{"TLE_LINE2":"2 51893  53.2207  64.1561 0001714  41.0272 319.0848 15.08858215 39524","GP_ID":"217171496","REV_AT_EPOCH":"3952","TLE_LINE1":"1 51893U 22022AT  22312.31046519  .00004153  00000-0  27871-3 0  9994","INCLINATION":"53.2207","FILE":"3648805","SITE":"AFETR","OBJECT_NAME":"STARLINK-3579","EPOCH":"2022-11-08T07:27:04.192416","CLASSIFICATION_TYPE":"U","RCS_SIZE":"LARGE","ELEMENT_SET_NO":"999","OBJECT_TYPE":"PAYLOAD","APOAPSIS":"540.875","OBJECT_ID":"2022-022AT","ARG_OF_PERICENTER":"41.0272","MEAN_ANOMALY":"319.0848","DECAY_DATE":null,"ECCENTRICITY":"0.00017140","COUNTRY_CODE":"US","CENTER_NAME":"EARTH","REF_FRAME":"TEME","NORAD_CAT_ID":"51893","PERIAPSIS":"538.504","LAUNCH_DATE":"2022-03-03","RA_OF_ASC_NODE":"64.1561","MEAN_MOTION_DOT":"0.00004153","MEAN_MOTION":"15.08858215","MEAN_MOTION_DDOT":"0.0000000000000","SEMIMAJOR_AXIS":"6917.825","TIME_SYSTEM":"UTC","MEAN_ELEMENT_THEORY":"SGP4","PERIOD":"95.436","EPHEMERIS_TYPE":"0","BSTAR":"0.00027871000000"},{"ELEMENT_SET_NO":"999","OBJECT_TYPE":"PAYLOAD","ARG_OF_PERICENTER":"29.1706","APOAPSIS":"541.285","OBJECT_ID":"2022-022AU","SITE":"AFETR","EPOCH":"2022-11-08T07:32:21.792768","OBJECT_NAME":"STARLINK-3595","CLASSIFICATION_TYPE":"U","RCS_SIZE":"LARGE","REV_AT_EPOCH":"3952","TLE_LINE1":"1 51894U 22022AU  22312.31414112  .00002140  00000-0  15247-3 0  9991","INCLINATION":"53.2188","FILE":"3648805","GP_ID":"217172746","TLE_LINE2":"2 51894  53.2188  64.1441 0002301  29.1706 330.9414 15.08856957 39524","TIME_SYSTEM":"UTC","SEMIMAJOR_AXIS":"6917.829","MEAN_MOTION_DDOT":"0.0000000000000","PERIOD":"95.436","BSTAR":"0.00015247000000","EPHEMERIS_TYPE":"0","MEAN_ELEMENT_THEORY":"SGP4","LAUNCH_DATE":"2022-03-03","RA_OF_ASC_NODE":"64.1441","NORAD_CAT_ID":"51894","PERIAPSIS":"538.102","MEAN_MOTION_DOT":"0.00002140","MEAN_MOTION":"15.08856957","REF_FRAME":"TEME","CENTER_NAME":"EARTH","MEAN_ANOMALY":"330.9414","DECAY_DATE":null,"COUNTRY_CODE":"US","ECCENTRICITY":"0.00023010"},{"CENTER_NAME":"EARTH","REF_FRAME":"TEME","MEAN_ANOMALY":"328.8774","ECCENTRICITY":"0.00018370","DECAY_DATE":null,"COUNTRY_CODE":"US","MEAN_ELEMENT_THEORY":"SGP4","PERIOD":"95.436","EPHEMERIS_TYPE":"0","BSTAR":"0.00069961000000","MEAN_MOTION_DDOT":"0.0000000000000","TIME_SYSTEM":"UTC","SEMIMAJOR_AXIS":"6917.799","MEAN_MOTION_DOT":"0.00010872","MEAN_MOTION":"15.08866722","NORAD_CAT_ID":"51895","PERIAPSIS":"538.393","LAUNCH_DATE":"2022-03-03","RA_OF_ASC_NODE":"62.3834","GP_ID":"217203766","REV_AT_EPOCH":"3952","TLE_LINE1":"1 51895U 22022AV  22312.70423019  .00010872  00000-0  69961-3 0  9994","INCLINATION":"53.2182","FILE":"3649076","TLE_LINE2":"2 51895  53.2182  62.3834 0001837  31.2327 328.8774 15.08866722 39527","APOAPSIS":"540.935","OBJECT_ID":"2022-022AV","ARG_OF_PERICENTER":"31.2327","OBJECT_TYPE":"PAYLOAD","ELEMENT_SET_NO":"999","RCS_SIZE":"LARGE","SITE":"AFETR","OBJECT_NAME":"STARLINK-3594","EPOCH":"2022-11-08T16:54:05.488416","CLASSIFICATION_TYPE":"U"},{"DECAY_DATE":null,"COUNTRY_CODE":"US","ECCENTRICITY":"0.00015580","MEAN_ANOMALY":"322.5918","CENTER_NAME":"EARTH","REF_FRAME":"TEME","PERIAPSIS":"538.620","NORAD_CAT_ID":"51896","RA_OF_ASC_NODE":"64.1564","LAUNCH_DATE":"2022-03-03","MEAN_MOTION":"15.08855639","MEAN_MOTION_DOT":"0.00001211","MEAN_MOTION_DDOT":"0.0000000000000","SEMIMAJOR_AXIS":"6917.833","TIME_SYSTEM":"UTC","MEAN_ELEMENT_THEORY":"SGP4","BSTAR":"0.00009412400000","EPHEMERIS_TYPE":"0","PERIOD":"95.437","TLE_LINE2":"2 51896  53.2198  64.1564 0001558  37.5183 322.5918 15.08855639 39519","GP_ID":"217171747","FILE":"3648805","TLE_LINE1":"1 51896U 22022AW  22312.30774244  .00001211  00000-0  94124-4 0  9997","INCLINATION":"53.2198","REV_AT_EPOCH":"3951","EPOCH":"2022-11-08T07:23:08.946816","CLASSIFICATION_TYPE":"U","OBJECT_NAME":"STARLINK-3593","SITE":"AFETR","RCS_SIZE":"LARGE","OBJECT_TYPE":"PAYLOAD","ELEMENT_SET_NO":"999","OBJECT_ID":"2022-022AW","APOAPSIS":"540.775","ARG_OF_PERICENTER":"37.5183"},{"RA_OF_ASC_NODE":"62.4125","LAUNCH_DATE":"2022-03-03","PERIAPSIS":"538.500","NORAD_CAT_ID":"51897","MEAN_MOTION":"15.08855244","MEAN_MOTION_DOT":"0.00003890","TIME_SYSTEM":"UTC","SEMIMAJOR_AXIS":"6917.834","MEAN_MOTION_DDOT":"0.0000000000000","EPHEMERIS_TYPE":"0","BSTAR":"0.00026225000000","PERIOD":"95.437","MEAN_ELEMENT_THEORY":"SGP4","ECCENTRICITY":"0.00017330","DECAY_DATE":null,"COUNTRY_CODE":"US","MEAN_ANOMALY":"306.6447","REF_FRAME":"TEME","CENTER_NAME":"EARTH","OBJECT_NAME":"STARLINK-3598","EPOCH":"2022-11-08T16:48:46.615392","CLASSIFICATION_TYPE":"U","SITE":"AFETR","RCS_SIZE":"LARGE","ELEMENT_SET_NO":"999","OBJECT_TYPE":"PAYLOAD","ARG_OF_PERICENTER":"53.4705","OBJECT_ID":"2022-022AX","APOAPSIS":"540.898","TLE_LINE2":"2 51897  53.2212  62.4125 0001733  53.4705 306.6447 15.08855244 39526","FILE":"3649076","TLE_LINE1":"1 51897U 22022AX  22312.70053953  .00003890  00000-0  26225-3 0  9990","REV_AT_EPOCH":"3952","INCLINATION":"53.2212","GP_ID":"217202288"},{"SEMIMAJOR_AXIS":"6917.863","TIME_SYSTEM":"UTC","MEAN_MOTION_DDOT":"0.0000000000000","PERIOD":"95.437","EPHEMERIS_TYPE":"0","BSTAR":"0.00013286000000","MEAN_ELEMENT_THEORY":"SGP4","LAUNCH_DATE":"2022-03-03","RA_OF_ASC_NODE":"65.3980","NORAD_CAT_ID":"51898","PERIAPSIS":"538.689","MEAN_MOTION_DOT":"0.00001827","MEAN_MOTION":"15.08845762","REF_FRAME":"TEME","CENTER_NAME":"EARTH","MEAN_ANOMALY":"308.0340","ECCENTRICITY":"0.00015010","DECAY_DATE":null,"COUNTRY_CODE":"US","ELEMENT_SET_NO":"999","OBJECT_TYPE":"PAYLOAD","ARG_OF_PERICENTER":"52.0787","APOAPSIS":"540.766","OBJECT_ID":"2022-022AY","SITE":"AFETR","OBJECT_NAME":"STARLINK-3597","EPOCH":"2022-11-08T00:49:38.392032","CLASSIFICATION_TYPE":"U","RCS_SIZE":"LARGE","INCLINATION":"53.2205","TLE_LINE1":"1 51898U 22022AY  22312.03447213  .00001827  00000-0  13286-3 0  9994","REV_AT_EPOCH":"3947","FILE":"3648805","GP_ID":"217172246","TLE_LINE2":"2 51898  53.2205  65.3980 0001501  52.0787 308.0340 15.08845762 39474"},{"CENTER_NAME":"EARTH","REF_FRAME":"TEME","ECCENTRICITY":"0.00019980","DECAY_DATE":null,"COUNTRY_CODE":"US","MEAN_ANOMALY":"313.8115","MEAN_MOTION_DDOT":"0.0000000000000","SEMIMAJOR_AXIS":"6917.812","TIME_SYSTEM":"UTC","MEAN_ELEMENT_THEORY":"SGP4","BSTAR":"0.00019348000000","EPHEMERIS_TYPE":"0","PERIOD":"95.436","PERIAPSIS":"538.295","NORAD_CAT_ID":"51956","RA_OF_ASC_NODE":"92.6096","LAUNCH_DATE":"2022-03-09","MEAN_MOTION":"15.08862303","MEAN_MOTION_DOT":"0.00002794","GP_ID":"217203275","FILE":"3649076","REV_AT_EPOCH":"3746","TLE_LINE1":"1 51956U 22025A   22312.65361656  .00002794  00000-0  19348-3 0  9995","INCLINATION":"53.2177","TLE_LINE2":"2 51956  53.2177  92.6096 0001998  46.3042 313.8115 15.08862303 37469","ELEMENT_SET_NO":"999","OBJECT_TYPE":"PAYLOAD","OBJECT_ID":"2022-025A","APOAPSIS":"541.059","ARG_OF_PERICENTER":"46.3042","OBJECT_NAME":"STARLINK-3700","CLASSIFICATION_TYPE":"U","EPOCH":"2022-11-08T15:41:12.470784","SITE":"AFETR","RCS_SIZE":"LARGE"}];
